{
  "norad_id": 66214,
  "name": "STARLINK-35714",
  "history": [
    {
      "epoch": "2026-03-28T13:27:39.512736Z",
      "apogee_km": 476.1130168090076,
      "perigee_km": 474.3119565639072,
      "latitude_deg": 8.633807316375526e-06,
      "longitude_deg": 114.7284116078844,
      "height_km": 475.9519298045441,
      "semi_major_axis_km": 6853.349486686458,
      "eccentricity": 0.0001314,
      "inclination_deg": 53.1594,
      "raan_deg": 142.6226,
      "arg_perigee_deg": 79.8603,
      "mean_anomaly_deg": 280.2546,
      "mean_motion_rev_day": 15.30200865
    },
    {
      "epoch": "2026-03-30T03:04:56.244864Z",
      "apogee_km": 476.375593212485,
      "perigee_km": 473.99886037063425,
      "latitude_deg": 6.0504785267324163e-05,
      "longitude_deg": -98.41841894480156,
      "height_km": 476.1360228557647,
      "semi_major_axis_km": 6853.324226791559,
      "eccentricity": 0.0001734,
      "inclination_deg": 53.1596,
      "raan_deg": 135.3405,
      "arg_perigee_deg": 92.4799,
      "mean_anomaly_deg": 267.6401,
      "mean_motion_rev_day": 15.30209325
    }
  ]
}